[{"OBJECT_NAME":"DRESDEN","OBJECT_ID":"2025-185A","EPOCH":"2026-03-09T17:16:36.875136","MEAN_MOTION":14.773332,"ECCENTRICITY":0.00118457,"INCLINATION":97.9609,"RA_OF_ASC_NODE":153.1305,"ARG_OF_PERICENTER":62.0124,"MEAN_ANOMALY":298.2283,"EPHEMERIS_TYPE":0,"CLASSIFICATION_TYPE":"U","NORAD_CAT_ID":65297,"ELEMENT_SET_NO":999,"REV_AT_EPOCH":2913,"BSTAR":0.0014833733,"MEAN_MOTION_DOT":0.0001051,"MEAN_MOTION_DDOT":0},{"OBJECT_NAME":"COSMOS 886 DEB","OBJECT_ID":"1976-126S","EPOCH":"2026-03-09T21:56:14.599968","MEAN_MOTION":12.77359426,"ECCENTRICITY":0.10555572,"INCLINATION":65.8446,"RA_OF_ASC_NODE":295.88,"ARG_OF_PERICENTER":53.4024,"MEAN_ANOMALY":315.9492,"EPHEMERIS_TYPE":0,"CLASSIFICATION_TYPE":"U","NORAD_CAT_ID":9721,"ELEMENT_SET_NO":999,"REV_AT_EPOCH":28368,"BSTAR":0.00022738028,"MEAN_MOTION_DOT":5.23e-6,"MEAN_MOTION_DDOT":0}]
